FACSAT-1                
1 43721U 18096C   22124.51084874  .00023903  00000+0  71496-3 0  9995
2 43721  97.3524 204.4270 0014371 203.7396 212.8292 15.34454704191233
CENTAURI-2              
1 43722U 18096D   22124.19384857  .00030288  00000+0  83104-3 0  9997
2 43722  97.3560 205.8551 0013965 204.4688 155.5895 15.37117188191272
INNOSAT-2               
1 43738U 18096V   22124.49811434  .00044909  00000+0  95007-3 0  9993
2 43738  97.3663 212.5590 0017115 197.4019 218.8843 15.44849280191719
SIRION PATHFINDER-2     
1 43759U 18099B   22124.50369783  .00001499  00000+0  13778-3 0  9998
2 43759  97.6222 192.4200 0014972  52.3950 307.8628 14.96182593186471
CORVUS BC4              
1 43767U 18099K   22124.50712478  .00001741  00000+0  16174-3 0  9993
2 43767  97.6180 190.9945 0012583  58.8477 301.3976 14.95578378186400
MOVE-II                 
1 43780U 18099Y   22124.44996452  .00004221  00000+0  36804-3 0  9995
2 43780  97.6257 192.9629 0013762  63.3899 296.8732 14.97317249186475
SPACEBEE-7              
1 43816U 18099BL  22124.43501657  .00002917  00000+0  25603-3 0  9998
2 43816  97.6279 193.6707 0013821  46.7541 313.4833 14.97297195186069
SPACEBEE-5              
1 43817U 18099BM  22124.46028884  .00009495  00000+0  76147-3 0  9995
2 43817  97.6379 196.2715 0011088  54.7832 305.4428 15.00265300186175
SPACEBEE-6              
1 43818U 18099BN  22124.15216453  .00006621  00000+0  56182-3 0  9998
2 43818  97.6336 194.1723 0013981  49.2882 310.9553 14.98170764186202
SHIELDS 1               
1 43850U 18104B   22124.36404529  .00005384  00000+0  22522-3 0  9993
2 43850  85.0282  81.4622 0016803  71.7457 288.5613 15.23202134187797
STF-1                   
1 43852U 18104D   22124.34222006  .00013258  00000+0  51648-3 0  9991
2 43852  85.0308  81.9062 0016329  83.5653 276.7450 15.25721179187811
ZACUBE-2                
1 43907U 18111AH  22124.49370576  .00010991  00000+0  41559-3 0  9993
2 43907  97.1958  12.3619 0018795 233.1772 252.1327 15.26963469186582
LUME 1                  
1 43908U 18111AJ  22124.42815228  .00009765  00000+0  34270-3 0  9994
2 43908  97.1967  13.6347 0017380 226.4025 133.5775 15.29471871186662
AOBA VELOX-IV           
1 43940U 19003J   22124.51641813  .00027208  00000+0  80448-3 0  9998
2 43940  97.1317 161.7338 0016681 303.9416  56.0242 15.34754136183388
MOVE-IIB                
1 44398U 19038N   22124.59050633  .00015918  00000+0  79140-3 0  9998
2 44398  97.6248  93.5837 0020600 282.7053  77.1796 15.17539528156382
SONATE                  
1 44400U 19038Q   22124.58425773  .00006868  00000+0  37745-3 0  9991
2 44400  97.6347  92.9151 0022370 286.2308  73.6437 15.14211720156297
LUCKY-7                 
1 44406U 19038W   22124.47555600  .00005946  00000+0  32029-3 0  9994
2 44406  97.6358  93.2602 0020985 283.7956  76.0940 15.15011924156304
BEESAT 9                
1 44412U 19038AC  22124.44045065  .00008538  00000+0  44476-3 0  9996
2 44412  97.6334  93.4399 0018406 288.7219  71.2015 15.16108496156023
JAISAT-1                
1 44419U 19038F   22124.43997191  .00008444  00000+0  43417-3 0  9998
2 44419  97.6338  94.2427 0017360 285.8816  74.0503 15.16584741156387
DUCHIFAT-3              
1 44854U 19089C   22124.00095639  .00005632  00000+0  44134-3 0  9999
2 44854  36.9688   3.8134 0008343 231.6234 128.3490 15.00746199131256
EYESAT-NANO             
1 44877U 19092E   22124.46546394  .00012091  00000+0  53915-3 0  9991
2 44877  97.4645 309.1727 0012819 146.9869 213.2169 15.21481351131673
ORBITAL FACTORY 2 (OF-2)
1 45113U 19071C   22124.43031178  .00034592  00000+0  77207-3 0  9998
2 45113  51.6394 275.6229 0009528   8.7527 351.3623 15.43175337126573
M2 PATHFINDER           
1 45727U 20037E   22124.49050479  .00001567  00000+0  16039-3 0  9996
2 45727  97.7311 300.7658 0012447 176.8344 183.2964 14.91885339100279
NETSAT-4                
1 46504U 20068U   22124.57825365  .00005263  00000+0  39348-3 0  9992
2 46504  97.7184  64.4688 0012826 111.0352 249.2194 15.03147225 87450
NETSAT-3                
1 46505U 20068V   22124.39256553  .00003863  00000+0  29054-3 0  9997
2 46505  97.7193  64.2143 0011769 116.4288 243.8144 15.03092082 87430
NETSAT-1                
1 46506U 20068W   22124.54047858  .00003729  00000+0  28094-3 0  9995
2 46506  97.7207  64.3006 0010933 122.4049 237.8186 15.03064514 87450
NETSAT-2                
1 46507U 20068X   22124.61577117  .00004203  00000+0  31627-3 0  9994
2 46507  97.7200  64.3677 0010376 128.6542 231.5578 15.03038230 87413
SPOC                    
1 46921U 98067RR  22124.37662305  .00173633  00000+0  87728-3 0  9992
2 46921  51.6296 158.7773 0006821  17.4840 342.6395 15.80516596 85003
NEUTRON-1               
1 46923U 98067RT  22124.54461893  .00144931  00000+0  74038-3 0  9991
2 46923  51.6300 158.4113 0006717  15.9636 344.1576 15.80366359 85059
DESCENT                 
1 46927U 98067RX  22124.37516798  .00191578  00000+0  89833-3 0  9999
2 46927  51.6304 158.7702 0007246  13.3097 346.8095 15.82074523 84948
SAI-1 NANOCONNECT-2     
1 47701U 21015C   22124.45891057  .00011025  00000+0  42791-3 0  9992
2 47701  97.4239 201.6330 0010467 244.1321 115.8838 15.26221386 65501
RSP-01                  
1 47925U 98067SB  22124.40664313  .00213505  00000+0  10025-2 0  9990
2 47925  51.6312 167.9972 0008268  16.6498 343.4775 15.81972681 64850
TAUSAT-1                
1 47926U 98067SC  22123.94020726  .05013963  12182-4  10618-2 0  9991
2 47926  51.5963 160.1616 0005913 352.3270   7.7661 16.30011657 64906
TSURU                   
1 47927U 98067SD  22124.51962992  .00131264  00000+0  81541-3 0  9991
2 47927  51.6332 170.2599 0006740  17.6807 342.4427 15.76050391 64834
MAYA-2                  
1 47929U 98067SF  22124.51988027  .00131517  00000+0  82380-3 0  9993
2 47929  51.6330 170.2615 0006645  18.7391 341.3852 15.75860810 64796
GUARANISAT-1            
1 47931U 98067SH  22124.37901572  .00148043  00000+0  91620-3 0  9999
2 47931  51.6325 170.8400 0006695  16.1705 343.9508 15.76078625 64812
SMOG-1                  
1 47964U 21022AJ  22124.29834602  .00007867  00000+0  49470-3 0  9996
2 47964  97.5338  25.6945 0016829 289.9371  70.0045 15.09378761 60226
MMSATS-1                
1 47976U 98067SJ  22124.64541453  .00021967  00000+0  30487-3 0  9995
2 47976  51.6490 184.6065 0000291 342.6117  17.4865 15.56956499 63432
BCCSAT-1                
1 48041U 21022AK  22124.45909761  .00006529  00000+0  42049-3 0  9999
2 48041  97.5348  25.5258 0013401 287.6659  72.3106 15.08608632 60200
RAMSAT                  
1 48850U 98067SL  22124.41621725  .00070976  00000+0  72654-3 0  9999
2 48850  51.6371 181.5819 0004467 325.8097  34.2610 15.64330106 50424
BD-28                   
1 48867U 98067SN  22124.42133652  .00083973  00000+0  78501-3 0  9993
2 48867  51.6336 180.0871 0006021 345.5944  14.4879 15.66526290 49195
BINAR-1                 
1 49272U 98067SR  22124.41667400  .00076243  00000+0  80445-3 0  9998
2 49272  51.6357 185.3126 0002395  43.5673 316.5510 15.63538275 32760
MAYA-3                  
1 49273U 98067SS  22124.56799462  .00099477  00000+0  86559-3 0  9995
2 49273  51.6349 182.5705 0004281  23.7068 336.4125 15.68232763 32815
MAYA-4                  
1 49274U 98067ST  22124.45311964  .00118688  00000+0  10415-2 0  9994
2 49274  51.6343 183.3001 0004277  24.5373 335.5827 15.67946108 32791
CUAVA-1                 
1 49275U 98067SU  22124.58799701  .00090936  00000+0  86442-3 0  9997
2 49275  51.6370 183.1996 0003238  32.5112  83.1933 15.66091659 32750
